[{"OBJECT_NAME":"STARLINK-6139","OBJECT_ID":"2023-090J","EPOCH":"2026-03-09T20:00:51.659136","MEAN_MOTION":15.0253533,"ECCENTRICITY":0.00014053,"INCLINATION":43.004,"RA_OF_ASC_NODE":273.9931,"ARG_OF_PERICENTER":267.3015,"MEAN_ANOMALY":92.7667,"EPHEMERIS_TYPE":0,"CLASSIFICATION_TYPE":"U","NORAD_CAT_ID":57109,"ELEMENT_SET_NO":999,"REV_AT_EPOCH":15043,"BSTAR":-9.477038e-6,"MEAN_MOTION_DOT":-3.32e-6,"MEAN_MOTION_DDOT":0},{"OBJECT_NAME":"UNKNOWN","OBJECT_ID":"","EPOCH":"2026-03-07T16:41:41.743392","MEAN_MOTION":15.0507428,"ECCENTRICITY":0.0006664,"INCLINATION":85.8737,"RA_OF_ASC_NODE":153.9139,"ARG_OF_PERICENTER":326.6675,"MEAN_ANOMALY":33.4139,"EPHEMERIS_TYPE":0,"CLASSIFICATION_TYPE":"U","NORAD_CAT_ID":82448,"ELEMENT_SET_NO":999,"REV_AT_EPOCH":44981,"BSTAR":0.00062595,"MEAN_MOTION_DOT":8.933e-5,"MEAN_MOTION_DDOT":0}]
